1 45697U 20035AS  22365.41532240  .00009709  00000-0  66955-3 0  9999
2 45697  53.0523 223.2595 0001437  84.4640 275.6512 15.06415113143676
1 45697U 20035AS  22365.41532240  .00009709  00000-0  66955-3 0  9999
2 45697  53.0523 223.2595 0001437  84.4640 275.6512 15.06415113143261
1 45697U 20035AS  22365.74705611  .00004809  00000-0  34141-3 0  9997
2 45697  53.0524 221.7703 0001466  85.4732 274.6425 15.06410258143729
1 45697U 20035AS  23001.60956743 -.00001662  00000-0 -92728-4 0  9996
2 45697  53.0523 217.8986 0001476  81.2693 278.8463 15.06395729143855
1 45697U 20035AS  23001.87495500 -.00001000  00000-0 -48265-4 0  9997
2 45697  53.0519 216.7068 0001549  86.6549 273.4617 15.06396542143899
1 45697U 20035AS  23001.94130242 -.00000858  00000-0 -38705-4 0  9992
2 45697  53.0524 216.4092 0001507  86.7489 273.3673 15.06397247143497
1 45697U 20035AS  23002.60476826  .00000118  00000-0  26816-4 0  9994
2 45697  53.0530 213.4300 0001432  85.0050 275.1102 15.06400432144002
1 45697U 20035AS  23002.87016154 -.00000501  00000-0 -14774-4 0  9995
2 45697  53.0534 212.2395 0001426  85.0718 275.0434 15.06394126144044
1 45697U 20035AS  23003.00286062 -.00001122  00000-0 -56474-4 0  9991
2 45697  53.0534 211.6429 0001396  85.2651 274.8498 15.06387985143657
1 45697U 20035AS  23003.53363991  .00000240  00000-0  35005-4 0  9991
2 45697  53.0535 209.2602 0001320  84.9221 275.1919 15.06383592144147
1 45697U 20035AS  23004.26345462  .00000221  00000-0  33704-4 0  9998
2 45697  53.0535 205.9839 0001325  85.0665 275.0476 15.06391856144252
1 45697U 20035AS  23004.26345462  .00000221  00000-0  33704-4 0  9998
2 45697  53.0535 205.9839 0001325  85.0665 275.0476 15.06391856143846
1 45697U 20035AS  23005.52404403  .00002016  00000-0  15419-3 0  9995
2 45697  53.0535 200.3250 0001329  89.1821 270.9321 15.06395656144447
1 45697U 20035AS  23005.52404403  .00002016  00000-0  15419-3 0  9995
2 45697  53.0535 200.3250 0001329  89.1821 270.9321 15.06395656144032
1 45697U 20035AS  23005.78942951  .00002167  00000-0  16432-3 0  9991
2 45697  53.0535 199.1338 0001338  88.9877 271.1265 15.06398889144482
1 45697U 20035AS  23006.91732786  .00000469  00000-0  50367-4 0  9999
2 45697  53.0538 194.0708 0001368  86.7043 273.4102 15.06398602144651
1 45697U 20035AS  23006.91732786  .00000469  00000-0  50367-4 0  9999
2 45697  53.0538 194.0708 0001368  86.7043 273.4102 15.06398602144246
1 45697U 20035AS  23007.24906273  .00000256  00000-0  36114-4 0  9998
2 45697  53.0537 192.5814 0001368  86.8270 273.2876 15.06398499144700
1 45697U 20035AS  23007.91252510  .00000391  00000-0  45112-4 0  9998
2 45697  53.0537 189.6023 0001435  88.6071 271.5082 15.06405073144801
1 45697U 20035AS  23008.50964323  .00001849  00000-0  14301-3 0  9990
2 45697  53.0535 186.9218 0001477  88.4923 271.6236 15.06402394144899
1 45697U 20035AS  23008.50964323  .00001849  00000-0  14301-3 0  9990
2 45697  53.0535 186.9218 0001477  88.4923 271.6236 15.06402394144484
1 45697U 20035AS  23008.84137408  .00002261  00000-0  17063-3 0  9990
2 45697  53.0530 185.4326 0001415  88.4072 271.7079 15.06405764144941
1 45697U 20035AS  23009.17311132  .00001407  00000-0  11335-3 0  9992
2 45697  53.0532 183.9436 0001412  87.2409 272.8742 15.06402413144998
1 45697U 20035AS  23009.77022967  .00001359  00000-0  11008-3 0  9996
2 45697  53.0533 181.2629 0001425  87.7958 272.3194 15.06405009144677
1 45697U 20035AS  23009.90292358  .00000865  00000-0  76944-4 0  9996
2 45697  53.0536 180.6674 0001383  86.6001 273.5146 15.06404554145106
1 45697U 20035AS  23010.16831496 -.00000130  00000-0  10144-4 0  9994
2 45697  53.0533 179.4758 0001335  85.3231 274.7911 15.06399598144732
1 45697U 20035AS  23010.50005424 -.00001721  00000-0 -96672-4 0  9994
2 45697  53.0540 177.9865 0001274  86.6225 273.4910 15.06395031145195
1 45697U 20035AS  23010.50005424 -.00001721  00000-0 -96672-4 0  9994
2 45697  53.0540 177.9865 0001274  86.6225 273.4910 15.06395031144789
1 45697U 20035AS  23011.16352463 -.00000863  00000-0 -39046-4 0  9993
2 45697  53.0543 175.0080 0001338  86.4856 273.6286 15.06392039145299
1 45697U 20035AS  23011.76064220  .00000645  00000-0  62215-4 0  9990
2 45697  53.0542 172.3269 0001493  88.2910 271.8250 15.06392751144976
1 45697U 20035AS  23011.82698686  .00003657  00000-0  26435-3 0  9995
2 45697  53.0540 172.0286 0001638  86.3185 273.7991 15.06387830145396
1 45697U 20035AS  23012.15871136  .00002436  00000-0  18233-3 0  9996
2 45697  53.0541 170.5398 0001442  89.0043 271.1111 15.06407464145033
1 45697U 20035AS  23012.68946244  .00005485  00000-0  38653-3 0  9992
2 45697  53.0539 168.1556 0001593  86.1787 273.9384 15.06427123145529
1 45697U 20035AS  23012.68946244  .00005485  00000-0  38653-3 0  9992
2 45697  53.0539 168.1556 0001593  86.1787 273.9384 15.06427123145114
1 45697U 20035AS  23013.55200321 -.00003510  00000-0 -21694-3 0  9994
2 45697  53.0588 164.2857 0000832 104.3507 255.7574 15.06388053145653
1 45697U 20035AS  23013.55200321 -.00003510  00000-0 -21694-3 0  9994
2 45697  53.0588 164.2857 0000832 104.3507 255.7574 15.06388053145248
1 45697U 20035AS  23014.67990927 -.00005748  00000-0 -36740-3 0  9999
2 45697  53.0538 159.2227 0001681  86.6976 273.4205 15.06390852145410
1 45697U 20035AS  23015.60876965  .00005821  00000-0  40951-3 0  9997
2 45697  53.0527 155.0514 0001558  98.4052 261.7113 15.06383723145967
1 45697U 20035AS  23015.67511356  .00007681  00000-0  53409-3 0  9992
2 45697  53.0526 154.7540 0001467  92.2726 267.8431 15.06391304145975
1 45697U 20035AS  23015.67511356  .00007681  00000-0  53409-3 0  9992
2 45697  53.0526 154.7540 0001467  92.2726 267.8431 15.06391304145560
1 45697U 20035AS  23016.07320196  .00006830  00000-0  47716-3 0  9996
2 45697  53.0524 152.9673 0001493  87.7246 272.3913 15.06385963145627
1 45697U 20035AS  23016.60397811  .00005049  00000-0  35766-3 0  9996
2 45697  53.0521 150.5843 0001505  98.2252 261.8908 15.06393921146110
1 45697U 20035AS  23016.67032423  .00006214  00000-0  43571-3 0  9996
2 45697  53.0527 150.2877 0001391  86.5486 273.5662 15.06398471146125
1 45697U 20035AS  23017.13475573  .00001879  00000-0  14505-3 0  9992
2 45697  53.0521 148.2043 0001680  84.5127 275.6054 15.06393739145783
1 45697U 20035AS  23017.46650025 -.00005576  00000-0 -35599-3 0  9991
2 45697  53.0523 146.7129 0001420  85.9379 274.1772 15.06371113145838
1 45697U 20035AS  23017.73189218 -.00005343  00000-0 -34033-3 0  9996
2 45697  53.0523 145.5213 0001419  83.8565 276.2586 15.06370754146287
1 45697U 20035AS  23018.19631799  .00003672  00000-0  26532-3 0  9999
2 45697  53.0519 143.4372 0001622  78.9236 281.1936 15.06392376145941
1 45697U 20035AS  23018.59439618  .00034796  00000-0  23414-2 0  9995
2 45697  53.0521 141.6498 0001353  73.2883 286.8254 15.06431076146419
1 45697U 20035AS  23018.59439618  .00034796  00000-0  23414-2 0  9995
2 45697  53.0521 141.6498 0001353  73.2883 286.8254 15.06431076146004
1 45697U 20035AS  23018.66074114  .00037740  00000-0  25364-2 0  9997
2 45697  53.0521 141.3520 0001361  71.2775 288.8361 15.06438413146423
1 45697U 20035AS  23019.39055246  .00009943  00000-0  68534-3 0  9994
2 45697  53.0533 138.0754 0000931 116.4777 243.6307 15.06406522146531
1 45697U 20035AS  23019.39055246  .00009943  00000-0  68534-3 0  9994
2 45697  53.0533 138.0754 0000931 116.4777 243.6307 15.06406522146126
1 45697U 20035AS  23019.72228191  .00022365  00000-0  15142-2 0  9991
2 45697  53.0526 136.5856 0001288  87.4659 272.6477 15.06433818146179
1 45697U 20035AS  23020.05401661  .00026908  00000-0  18177-2 0  9992
2 45697  53.0529 135.0969 0001005 112.5286 247.5809 15.06414813146224
1 45697U 20035AS  23020.45209610  .00025967  00000-0  17547-2 0  9990
2 45697  53.0527 133.3020 0002290 127.3472 232.7726 15.06421518146694
1 45697U 20035AS  23020.45209610  .00025967  00000-0  17547-2 0  9990
2 45697  53.0527 133.3020 0002290 127.3472 232.7726 15.06421518146289
1 45697U 20035AS  23021.44729765  .00026437  00000-0  17863-2 0  9992
2 45697  53.0536 128.8403 0001246 111.8961 248.2161 15.06416377146433
1 45697U 20035AS  23022.30980871  .00016365  00000-0  11150-2 0  9997
2 45697  53.0538 124.9706 0000937  96.4361 263.6734 15.06400146146564
1 45697U 20035AS  23022.97327826  .00014568  00000-0  99472-3 0  9992
2 45697  53.0532 121.9940 0000793  95.3780 264.7300 15.06405934146660
1 45697U 20035AS  23023.30501725  .00013780  00000-0  94227-3 0  9990
2 45697  53.0541 120.5027 0001741  94.2167 265.9021 15.06395203146718
1 45697U 20035AS  23024.43291287  .00002081  00000-0  15861-3 0  9993
2 45697  53.0522 115.4384 0001929 124.4307 235.6865 15.06393814146880
1 45697U 20035AS  23025.49446721  .00002641  00000-0  19615-3 0  9998
2 45697  53.0532 110.6750 0001048 103.4773 256.6333 15.06397044147457
1 45697U 20035AS  23025.49446721  .00002641  00000-0  19615-3 0  9998
2 45697  53.0532 110.6750 0001048 103.4773 256.6333 15.06397044147042
1 45697U 20035AS  23025.56081279  .00004057  00000-0  29108-3 0  9990
2 45697  53.0523 110.3757 0001334 113.5615 246.5514 15.06400792147461
1 45697U 20035AS  23026.48966683  .00004530  00000-0  32276-3 0  9999
2 45697  53.0520 106.2056 0001153  99.5316 260.5803 15.06408742147600
1 45697U 20035AS  23027.48487103  .00001712  00000-0  13382-3 0  9991
2 45697  53.0522 101.7387 0001198  87.5293 272.5833 15.06401021147754
1 45697U 20035AS  23027.48487103  .00001712  00000-0  13382-3 0  9991
2 45697  53.0522 101.7387 0001198  87.5293 272.5833 15.06401021147349
1 45697U 20035AS  23028.54641808  .00000789  00000-0  71856-4 0  9997
2 45697  53.0537  96.9726 0001226 103.3082 256.8044 15.06403144147912
1 45697U 20035AS  23028.54641808  .00000789  00000-0  71856-4 0  9997
2 45697  53.0537  96.9726 0001226 103.3082 256.8044 15.06403144147507
1 45697U 20035AS  23028.87815380 -.00000473  00000-0 -12871-4 0  9995
2 45697  53.0536  95.4827 0001142  96.7439 263.3679 15.06401826147962
1 45697U 20035AS  23029.20989618  .00000024  00000-0  20531-4 0  9991
2 45697  53.0537  93.9944 0001280 107.0097 253.1032 15.06389807147600
1 45697U 20035AS  23029.87336166 -.00000629  00000-0 -23312-4 0  9991
2 45697  53.0541  91.0162 0001143 106.9725 253.1389 15.06396776148115
1 45697U 20035AS  23030.40413807  .00000908  00000-0  79816-4 0  9998
2 45697  53.0540  88.6337 0001294  98.1764 261.9372 15.06395713147783
1 45697U 20035AS  23030.47048413  .00000961  00000-0  83398-4 0  9991
2 45697  53.0540  88.3359 0001265  96.6549 263.4584 15.06396924148201
1 45697U 20035AS  23030.86856645 -.00000068  00000-0  14297-4 0  9999
2 45697  53.0536  86.5480 0001189  86.2012 273.9113 15.06397914148266
1 45697U 20035AS  23031.13395800  .00001064  00000-0  90366-4 0  9998
2 45697  53.0530  85.3560 0001289  85.1605 274.9531 15.06390037147895
1 45697U 20035AS  23031.46569067  .00001861  00000-0  14381-3 0  9999
2 45697  53.0531  83.8672 0001334  84.8483 275.2658 15.06392320148357
1 45697U 20035AS  23031.86376838  .00001158  00000-0  96646-4 0  9999
2 45697  53.0532  82.0806 0001255  80.0315 280.0816 15.06399237148413
